[{"OBJECT_NAME":"STARLINK-4800","OBJECT_ID":"2022-114AN","EPOCH":"2026-03-09T20:32:32.987040","MEAN_MOTION":15.08840104,"ECCENTRICITY":0.00013511,"INCLINATION":53.2176,"RA_OF_ASC_NODE":283.6078,"ARG_OF_PERICENTER":91.7853,"MEAN_ANOMALY":268.3293,"EPHEMERIS_TYPE":0,"CLASSIFICATION_TYPE":"U","NORAD_CAT_ID":53854,"ELEMENT_SET_NO":999,"REV_AT_EPOCH":19313,"BSTAR":-2.3586364e-5,"MEAN_MOTION_DOT":-6.63e-6,"MEAN_MOTION_DDOT":0},{"OBJECT_NAME":"NANOFF B","OBJECT_ID":"2023-185S","EPOCH":"2026-03-09T23:34:31.291104","MEAN_MOTION":15.11549361,"ECCENTRICITY":0.00109129,"INCLINATION":97.5361,"RA_OF_ASC_NODE":137.8575,"ARG_OF_PERICENTER":288.4201,"MEAN_ANOMALY":71.5842,"EPHEMERIS_TYPE":0,"CLASSIFICATION_TYPE":"U","NORAD_CAT_ID":58755,"ELEMENT_SET_NO":999,"REV_AT_EPOCH":11888,"BSTAR":0.00028764283,"MEAN_MOTION_DOT":4.819e-5,"MEAN_MOTION_DDOT":0}]
